STARLINK-1392
1 25677C 20035W   21325.09786546 -.00021175  00000-0 -14187-2 0  3251
2 25677  53.0550 272.7993 0001658  69.2953  43.0262 15.06420611    16
